RSP-03                  
1 65732U 98067XL  26043.64259226  .01595936  19444-2  14645-2 0  9998
2 65732  51.6117 174.7279 0009438 324.4115  35.6270 16.12100303 22966
YOTSUBA-KULOVER         
1 65941U 98067XN  26043.59216736  .00133871  00000+0  99190-3 0  9992
2 65941  51.6248 186.5540 0004383 287.5761  72.4758 15.71964307 19541
BOTAN                   
1 65942U 98067XP  26044.25019649  .00432754  00000+0  14871-2 0  9995
2 65942  51.6159 178.8870 0007794 316.3906  43.6481 15.87930291 19707
E-KAGAKU-1              
1 65943U 98067XQ  26043.78397114  .00132308  00000+0  98347-3 0  9992
2 65943  51.6261 185.5955 0004045 304.0067  56.0546 15.71895752 19579
HRC MONOBLOCK CAMERA    
1 66052U 98067XR  26043.85830872  .00046703  00000+0  57780-3 0  9994
2 66052  51.6269 190.5956 0001449   1.9873 358.1125 15.59621334 18510
HTV-X1                  
1 66174U 25241A   26044.11739808  .00007930  00000+0  15398-3 0  9998
2 66174  51.6313 193.8240 0011114  93.1734 267.0526 15.48574923   519
SZ-21 MODULE            
1 66515U 25246C   26044.22677372  .00034969  00000+0  32518-3 0  9996
2 66515  41.4764 353.7289 0002368 294.7377  65.3218 15.66676295 14234
SHENZHOU-22             
1 66645U 25272A   26044.26200910  .00019658  00000+0  24374-3 0  9992
2 66645  41.4684 356.6736 0004121  79.0888 281.0414 15.59565331267648
SOYUZ-MS 28             
1 66664U 25275A   26044.11739808  .00007930  00000+0  15398-3 0  9999
2 66664  51.6313 193.8240 0011114  93.1734 267.0526 15.48574923  1288
DUPLEX                  
1 66906U 98067XS  26043.78470399  .00031917  00000+0  48138-3 0  9996
2 66906  51.6278 193.8544 0001391  78.4261 281.6886 15.54472077 11254
ISS OBJECT XT           
1 66907U 98067XT  26043.62452785  .00112845  00000+0  12305-2 0  9995
2 66907  51.6268 192.7837 0001966 283.0392  77.0382 15.62523563 11258
ISS OBJECT XU           
1 66908U 98067XU  26043.43200343  .00111150  00000+0  12130-2 0  9990
2 66908  51.6262 193.7463 0001766 286.5464  73.5336 15.62508415 11221
